 'C/2009 U3 (Hill)': 'C/2009 U3 (Hill),e,51.2627,49.3229,77.6991,168.9483,0.0004488,0.99162778,0.0000,03/20.2541/2010,2000,g 13.0,4.0\n',
 'C/2009 U5 (Grauer)': 'C/2009 U5 (Grauer),e,25.4743,121.1744,23.8537,10018,0.0000010,0.99939174,0.0000,06/22.9169/2010,2000,g  7.0,4.0\n',
 'C/2009 W2 (Boattini)': 'C/2009 W2 (Boattini),e,164.4903,199.5812,121.3343,35925,0.0000001,0.99980773,0.0000,05/01.7599/2010,2000,g  7.0,4.0\n',
 'C/2009 Y1 (Catalina)': 'C/2009 Y1 (Catalina),e,107.3152,160.2756,127.4017,365.7259,0.0001409,0.99310900,0.0000,01/28.9359/2011,2000,g  9.0,4.0\n',
 'C/2010 A4 (Siding Spring)': 'C/2010 A4 (Siding Spring),p,10/07.775/2010,96.797,271.507,2.74132,346.736,2000,10.5,4.0\n',
 'C/2010 B1 (Cardinal)': 'C/2010 B1 (Cardinal),p,02/06.889/2011,101.996,211.474,2.94261,277.200,2000,7.5,4.0\n',
 'P/1996 R2 (Lagerkvist)': 'P/1996 R2 (Lagerkvist),e,2.6040,40.1905,334.0522,3.784037,0.1338971,0.30953669,272.7695,01/04.0/2010,2000,g 11.5,4.0\n',
 'P/1998 U3 (Jager)': 'P/1998 U3 (Jager),e,19.0736,303.4905,180.9435,6.103235,0.0653678,0.64698802,259.7550,01/04.0/2010,2000,g  6.5,4.0\n',
 'P/1998 U4 (Spahr)': 'P/1998 U4 (Spahr),e,31.6530,181.3875,251.6693,5.596970,0.0744345,0.31181159,297.6711,01/04.0/2010,2000,g  8.0,4.0\n',
 'P/1998 VS24 (LINEAR)': 'P/1998 VS24 (LINEAR),e,5.0267,159.1698,244.4575,4.520777,0.1025379,0.24289596,60.3772,01/04.0/2010,2000,g 13.0,2.0\n',
 'P/1999 U3 (LINEAR)': 'P/1999 U3 (LINEAR),e,20.8867,305.9864,110.1262,4.945370,0.0896202,0.61147081,342.4827,01/04.0/2010,2000,g 13.5,4.0\n',
 'P/1999 XB69 (LINEAR)': 'P/1999 XB69 (LINEAR),e,11.3058,256.0484,220.3234,4.474949,0.1041171,0.63082131,16.8775,01/04.0/2010,2000,g 17.5,2.0\n',
 'P/1999 XN120 (Catalina)': 'P/1999 XN120 (Catalina),e,5.0250,285.4414,161.5865,4.188269,0.1149879,0.21120944,48.0198,01/04.0/2010,2000,g 13.5,2.0\n',
 'P/2000 Y3 (Scotti)': 'P/2000 Y3 (Scotti),e,2.2676,354.3342,90.3891,4.946072,0.0896011,0.20427901,294.3996,01/04.0/2010,2000,g  9.0,4.0\n',
 'P/2001 R6 (LINEAR-Skiff)': 'P/2001 R6 (LINEAR-Skiff),e,17.3853,67.3328,308.4436,4.172588,0.1156367,0.47787452,350.6196,01/04.0/2010,2000,g 13.0,4.0\n',
 'P/2002 Q1 (Van Ness)': 'P/2002 Q1 (Van Ness),e,36.2802,173.9937,185.0407,3.557752,0.1468725,0.56392859,42.4497,01/04.0/2010,2000,g 13.0,4.0\n',
 'P/2002 X2 (NEAT)': 'P/2002 X2 (NEAT),e,23.5326,75.0111,351.7898,3.867834,0.1295693,0.44998662,324.5309,01/04.0/2010,2000,g 12.0,4.0\n',
 'P/2003 HT15 (LINEAR)': 'P/2003 HT15 (LINEAR),e,27.6479,81.4461,124.2324,4.619247,0.0992767,0.41803992,243.9500,01/04.0/2010,2000,g 14.0,2.0\n',
 'P/2003 S2 (NEAT)': 'P/2003 S2 (NEAT),e,7.6372,87.7518,284.0283,3.830830,0.1314513,0.35908580,304.2421,01/04.0/2010,2000,g 12.5,4.0\n',
 'P/2003 UY275 (LINEAR)': 'P/2003 UY275 (LINEAR),e,16.3327,245.6878,119.3539,3.728809,0.1368828,0.50897195,325.9733,01/04.0/2010,2000,g 14.0,4.0\n',
 'P/2004 A1 (LONEOS)': 'P/2004 A1 (LONEOS),e,10.5515,124.9744,21.8410,7.952972,0.0439450,0.31008072,85.6053,01/04.0/2010,2000,g  6.5,4.0\n',
 'P/2004 F3 (NEAT)': 'P/2004 F3 (NEAT),e,15.9778,78.8178,176.4275,4.022684,0.1221603,0.28564904,223.0355,01/04.0/2010,2000,g  9.0,4.0\n',
 'P/2004 FY140 (LINEAR)': 'P/2004 FY140 (LINEAR),e,2.1266,327.1793,239.4604,4.934764,0.0899093,0.16694266,178.2392,01/04.0/2010,2000,g 12.5,2.0\n',
 'P/2004 HC18 (LINEAR)': 'P/2004 HC18 (LINEAR),e,23.4905,219.4946,30.9829,3.492552,0.1510044,0.50931147,305.7021,01/04.0/2010,2000,g 16.5,2.0\n',
 'P/2004 R1 (McNaught)': 'P/2004 R1 (McNaught),e,4.8937,295.9647,0.6859,3.106915,0.1799741,0.68274387,350.8832,01/04.0/2010,2000,g 18.5,4.0\n',
 'P/2005 JQ5 (Catalina)': 'P/2005 JQ5 (Catalina),e,5.6954,95.8324,222.7430,2.691894,0.2231604,0.69423480,1.3725,01/04.0/2010,2000,g 17.5,4.0\n',
 'P/2005 L1 (McNaught)': 'P/2005 L1 (McNaught),e,7.7358,138.3037,149.9551,3.980523,0.1241063,0.20853531,183.8664,01/04.0/2010,2000,g  9.5,4.0\n',
 'P/2005 RV25 (LONEOS-Christensen)': 'P/2005 RV25 (LONEOS-Christensen),e,9.8876,246.8783,191.2061,4.320612,0.1097454,0.16665958,126.9117,01/04.0/2010,2000,g  9.5,4.0\n',
 'P/2005 S2 (Skiff)': 'P/2005 S2 (Skiff),e,3.1410,161.2031,229.9520,7.983879,0.0436901,0.19863322,56.0657,01/04.0/2010,2000,g  7.5,4.0\n',
 'P/2005 SB216 (LONEOS)': 'P/2005 SB216 (LONEOS),e,24.1182,1.6744,83.3928,7.105573,0.0520362,0.46359723,55.0670,01/04.0/2010,2000,g 12.0,2.0\n',
 'P/2006 F1 (Kowalski)': 'P/2006 F1 (Kowalski),e,21.2750,124.7595,186.7775,4.675073,0.0975038,0.11867304,66.8113,01/04.0/2010,2000,g  8.0,4.0\n',
 'P/2007 H1 (McNaught)': 'P/2007 H1 (McNaught),e,11.8749,144.3643,202.7364,3.671340,0.1401093,0.37838973,121.8808,01/04.0/2010,2000,g 10.0,4.0\n',
 'P/2007 R1 (Larson)': 'P/2007 R1 (Larson),e,7.8742,181.6407,175.3125,6.035437,0.0664723,0.27851674,57.3646,01/04.0/2010,2000,g  8.0,4.0\n',
 'P/2008 CL94 (Lemmon)': 'P/2008 CL94 (Lemmon),e,8.3530,33.4527,81.4037,6.163479,0.0644118,0.11966614,83.1340,01/04.0/2010,2000,g  8.0,4.0\n',
 'P/2008 J2 (Beshore)': 'P/2008 J2 (Beshore),e,10.2519,98.1538,131.4777,3.477450,0.1519892,0.31000364,99.4997,01/04.0/2010,2000,g  9.0,4.0\n',
 'P/2008 J3 (McNaught)': 'P/2008 J3 (McNaught),e,25.3991,9.8525,4.4477,3.893147,0.1283077,0.41246683,38.3862,01/04.0/2010,2000,g 12.0,4.0\n',
 'P/2008 O2 (McNaught)': 'P/2008 O2 (McNaught),e,9.5184,325.8593,27.5013,4.490033,0.1035928,0.15278928,26.6427,01/04.0/2010,2000,g  9.0,4.0\n',
 'P/2008 T1 (Boattini)': 'P/2008 T1 (Boattini),e,2.0829,291.7676,35.9885,4.235136,0.1130845,0.28109179,76.5726,01/04.0/2010,2000,g 11.0,4.0\n',
 'P/2008 WZ96 (LINEAR)': 'P/2008 WZ96 (LINEAR),e,6.9574,59.1013,337.6473,3.359368,0.1600729,0.50993163,55.2309,01/04.0/2010,2000,g 13.5,4.0\n',
 'P/2008 Y3 (McNaught)': 'P/2008 Y3 (McNaught),e,38.8122,262.9165,238.2465,8.023335,0.0433682,0.44737440,15.5002,01/04.0/2010,2000,g  8.5,4.0\n',
 'P/2009 O3 (Hill)': 'P/2009 O3 (Hill),e,16.2178,183.7644,154.5450,7.818178,0.0450864,0.68663587,10.3891,01/04.0/2010,2000,g 12.5,4.0\n',
 'P/2009 Q1 (Hill)': 'P/2009 Q1 (Hill),e,14.4382,174.0871,157.8435,5.534584,0.0756966,0.49611425,13.9427,01/04.0/2010,2000,g 11.5,4.0\n',
 'P/2009 Q4 (Boattini)': 'P/2009 Q4 (Boattini),e,10.9691,127.6717,320.0122,3.138264,0.1772841,0.57911519,7.9915,01/04.0/2010,2000,g 15.5,4.0\n',
 'P/2009 Q5 (McNaught)': 'P/2009 Q5 (McNaught),e,40.9058,160.1409,209.2689,7.461864,0.0483541,0.60887136,5.6791,01/04.0/2010,2000,g 10.0,4.0\n',
 'P/2009 QG31 (La Sagra)': 'P/2009 QG31 (La Sagra),e,5.0554,346.2592,5.9191,3.573198,0.1459212,0.39890505,12.4909,01/04.0/2010,2000,g 14.0,4.0\n',
 'P/2009 S2 (McNaught)': 'P/2009 S2 (McNaught),e,28.4490,121.6126,230.3770,4.160066,0.1161592,0.47027222,22.5772,01/04.0/2010,2000,g 14.0,4.0\n',
 'P/2009 SK280 (Spacewatch-Hill)': 'P/2009 SK280 (Spacewatch-Hill),e,16.8110,36.4076,328.2127,4.775056,0.0944575,0.12053876,21.2766,01/04.0/2010,2000,g 11.0,4.0\n',
 'P/2009 T2 (La Sagra)': 'P/2009 T2 (La Sagra),e,28.1096,215.9852,215.4725,7.600759,0.0470347,0.76912505,359.5839,01/04.0/2010,2000,g 14.0,4.0\n',
 'P/2009 U4 (McNaught)': 'P/2009 U4 (McNaught),e,10.0928,55.6955,259.8979,5.075846,0.0861869,0.67514144,10.0775,01/04.0/2010,2000,g 14.0,4.0\n',
 'P/2009 Y2 (Kowalski)': 'P/2009 Y2 (Kowalski),e,29.9282,262.1295,171.9611,6.499097,0.0594873,0.64009118,359.9585,03/30.0/2010,2000,g 13.0,4.0\n',
 'P/2010 A1 (Hill)': 'P/2010 A1 (Hill),e,10.3324,47.4073,13.1405,4.373831,0.1077485,0.55419871,359.8993,08/06.0/2009,2000,g 13.0,4.0\n',
 'P/2010 A2 (LINEAR)': 'P/2010 A2 (LINEAR),e,5.2937,320.1150,133.2818,2.294341,0.2836071,0.12309088,8.7272,01/04.0/2010,2000,g 15.5,4.0\n',
 'P/2010 A3 (Hill)': 'P/2010 A3 (Hill),e,15.0281,64.8293,41.2820,6.054075,0.0661656,0.73210873,354.0660,01/04.0/2010,2000,g 14.0,4.0\n',
 'P/2010 A5 (LINEAR)': 'P/2010 A5 (LINEAR),e,5.783,277.906,306.775,5.07039,0.086326,0.6625070,359.966,04/19.0/2010,2000,g 13.0,4.0\n',
 'P/2010 B2 (WISE)': 'P/2010 B2 (WISE),e,8.8897,0.6617,155.4007,2.993271,0.1903203,0.46313850,2.6852,01/04.0/2010,2000,g 17.0,4.0\n',
 'P/2010 C1 (Scotti)': 'P/2010 C1 (Scotti),e,9.1426,142.0341,3.6353,7.063383,0.0525031,0.25884690,359.6708,11/25.0/2009,2000,g  9.5,4.0\n'
 # new stuff that wasn't derived from the website, but we need:
 '103P/Hartley': '103P/Hartley,e,13.6184,219.7602,181.2028,3.472567,0.1523099,0.695127,357.3682,10/11.0/2010,2000,g  8.5,8.0\n'
 }

def parseCometsFile():
    "This code snippet produced the above dictionary"

    dict = {}

    filename = "ephemerisComets.txt"
    path = "/home/sandboxes/pmargani/dss/trunk/nell/utilities/"
    fullpath = path + filename
    f = open(fullpath, 'r')
    lines = f.readlines()

    for l in lines:
        # skip the comments
        if l[0] != "#":
            parts = l.split(",")
            name = parts[0]
            dict[name] = l

    return dict        
        

